[{"CCSDS_OMM_VERS":"3.0","COMMENT":"GENERATED VIA SPACE-TRACK.ORG API","CREATION_DATE":"2012-08-04T00:23:07","ORIGINATOR":"18 SPCS","OBJECT_NAME":"COSMOS 2251 DEB","OBJECT_ID":"1993-036ARL","CENTER_NAME":"EARTH","REF_FRAME":"TEME","TIME_SYSTEM":"UTC","MEAN_ELEMENT_THEORY":"SGP4","EPOCH":"2012-08-04T00:02:26.709792","MEAN_MOTION":"15.20861129","ECCENTRICITY":"0.00601240","INCLINATION":"73.9561","RA_OF_ASC_NODE":"44.6637","ARG_OF_PERICENTER":"56.0537","MEAN_ANOMALY":"293.5287","EPHEMERIS_TYPE":"0","CLASSIFICATION_TYPE":"U","NORAD_CAT_ID":"35766","ELEMENT_SET_NO":"999","REV_AT_EPOCH":"16732","BSTAR":"0.00271040000000","MEAN_MOTION_DOT":"0.00063372","MEAN_MOTION_DDOT":"0.0000000000000","SEMIMAJOR_AXIS":"6881.383","PERIOD":"94.683","APOAPSIS":"544.621","PERIAPSIS":"461.874","OBJECT_TYPE":"DEBRIS","RCS_SIZE":"SMALL","COUNTRY_CODE":"CIS","LAUNCH_DATE":"1993-06-16","SITE":"PKMTR","DECAY_DATE":"2013-05-10","FILE":"1329491","GP_ID":"89915363","TLE_LINE0":"0 COSMOS 2251 DEB","TLE_LINE1":"1 35766U 93036ARL 12217.00169803  .00063372  00000-0  27104-2 0  9995","TLE_LINE2":"2 35766 073.9561 044.6637 0060124 056.0537 293.5287 15.20861129167329"},{"CCSDS_OMM_VERS":"3.0","COMMENT":"GENERATED VIA SPACE-TRACK.ORG API","CREATION_DATE":"2025-11-19T03:20:49","ORIGINATOR":"18 SPCS","OBJECT_NAME":"COSMOS 2251 DEB","OBJECT_ID":"1993-036ARM","CENTER_NAME":"EARTH","REF_FRAME":"TEME","TIME_SYSTEM":"UTC","MEAN_ELEMENT_THEORY":"SGP4","EPOCH":"2024-12-09T00:26:45.190176","MEAN_MOTION":"14.55252674","ECCENTRICITY":"0.00412554","INCLINATION":"73.9872","RA_OF_ASC_NODE":"254.4981","ARG_OF_PERICENTER":"48.2883","MEAN_ANOMALY":"312.1797","EPHEMERIS_TYPE":"0","CLASSIFICATION_TYPE":"U","NORAD_CAT_ID":"35767","ELEMENT_SET_NO":"999","REV_AT_EPOCH":"59706","BSTAR":"0.00561221000000","MEAN_MOTION_DOT":"0.00024642","MEAN_MOTION_DDOT":"0.0000000000000","SEMIMAJOR_AXIS":"7086.681","PERIOD":"98.952","APOAPSIS":"737.783","PERIAPSIS":"679.310","OBJECT_TYPE":"DEBRIS","RCS_SIZE":"SMALL","COUNTRY_CODE":"CIS","LAUNCH_DATE":"1993-06-16","SITE":"PKMTR","DECAY_DATE":null,"FILE":"4888721","GP_ID":"302938828","TLE_LINE0":"0 COSMOS 2251 DEB","TLE_LINE1":"1 35767U 93036ARM 24344.01857859  .00024642  00000-0  56122-2 0  9995","TLE_LINE2":"2 35767  73.9872 254.4981 0041255  48.2883 312.1797 14.55252674597067"},{"CCSDS_OMM_VERS":"3.0","COMMENT":"GENERATED VIA SPACE-TRACK.ORG API","CREATION_DATE":"2015-06-16T18:30:49","ORIGINATOR":"18 SPCS","OBJECT_NAME":"COSMOS 2251 DEB","OBJECT_ID":"1993-036ARN","CENTER_NAME":"EARTH","REF_FRAME":"TEME","TIME_SYSTEM":"UTC","MEAN_ELEMENT_THEORY":"SGP4","EPOCH":"2013-04-16T07:51:31.882176","MEAN_MOTION":"14.55239090","ECCENTRICITY":"0.00217320","INCLINATION":"74.0306","RA_OF_ASC_NODE":"76.3447","ARG_OF_PERICENTER":"204.9078","MEAN_ANOMALY":"221.3567","EPHEMERIS_TYPE":"0","CLASSIFICATION_TYPE":"U","NORAD_CAT_ID":"35768","ELEMENT_SET_NO":"999","REV_AT_EPOCH":"19837","BSTAR":"0.00294310000000","MEAN_MOTION_DOT":"0.00012776","MEAN_MOTION_DDOT":"0.0000000000000","SEMIMAJOR_AXIS":"7086.725","PERIOD":"98.952","APOAPSIS":"723.991","PERIAPSIS":"693.189","OBJECT_TYPE":"DEBRIS","RCS_SIZE":"SMALL","COUNTRY_CODE":"CIS","LAUNCH_DATE":"1993-06-16","SITE":"PKMTR","DECAY_DATE":"2014-10-12","FILE":"1885698","GP_ID":"99430088","TLE_LINE0":"0 COSMOS 2251 DEB","TLE_LINE1":"1 35768U 93036ARN 13106.32745234 +.00012776 +00000-0 +29431-2 0  9995","TLE_LINE2":"2 35768 074.0306 076.3447 0021732 204.9078 221.3567 14.55239090198379"},{"CCSDS_OMM_VERS":"3.0","COMMENT":"GENERATED VIA SPACE-TRACK.ORG API","CREATION_DATE":"2023-03-24T21:00:36","ORIGINATOR":"18 SPCS","OBJECT_NAME":"COSMOS 2251 DEB","OBJECT_ID":"1993-036ARP","CENTER_NAME":"EARTH","REF_FRAME":"TEME","TIME_SYSTEM":"UTC","MEAN_ELEMENT_THEORY":"SGP4","EPOCH":"2023-03-24T03:50:46.781952","MEAN_MOTION":"14.54414391","ECCENTRICITY":"0.00645050","INCLINATION":"74.0730","RA_OF_ASC_NODE":"235.0447","ARG_OF_PERICENTER":"141.1001","MEAN_ANOMALY":"219.4830","EPHEMERIS_TYPE":"0","CLASSIFICATION_TYPE":"U","NORAD_CAT_ID":"35769","ELEMENT_SET_NO":"999","REV_AT_EPOCH":"51105","BSTAR":"0.02681600000000","MEAN_MOTION_DOT":"0.00119278","MEAN_MOTION_DDOT":"0.0000000000000","SEMIMAJOR_AXIS":"7089.404","PERIOD":"99.009","APOAPSIS":"756.999","PERIAPSIS":"665.539","OBJECT_TYPE":"DEBRIS","RCS_SIZE":"SMALL","COUNTRY_CODE":"CIS","LAUNCH_DATE":"1993-06-16","SITE":"PKMTR","DECAY_DATE":"2023-09-29","FILE":"3869846","GP_ID":"228781758","TLE_LINE0":"0 COSMOS 2251 DEB","TLE_LINE1":"1 35769U 93036ARP 23083.16026368  .00119278  00000-0  26816-1 0  9991","TLE_LINE2":"2 35769  74.0730 235.0447 0064505 141.1001 219.4830 14.54414391511051"},{"CCSDS_OMM_VERS":"3.0","COMMENT":"GENERATED VIA SPACE-TRACK.ORG API","CREATION_DATE":"2014-09-24T19:01:57","ORIGINATOR":"18 SPCS","OBJECT_NAME":"COSMOS 2251 DEB","OBJECT_ID":"1993-036ARQ","CENTER_NAME":"EARTH","REF_FRAME":"TEME","TIME_SYSTEM":"UTC","MEAN_ELEMENT_THEORY":"SGP4","EPOCH":"2014-09-24T06:52:40.238976","MEAN_MOTION":"15.44235555","ECCENTRICITY":"0.00297800","INCLINATION":"74.1785","RA_OF_ASC_NODE":"128.0298","ARG_OF_PERICENTER":"181.0225","MEAN_ANOMALY":"183.2051","EPHEMERIS_TYPE":"0","CLASSIFICATION_TYPE":"U","NORAD_CAT_ID":"35770","ELEMENT_SET_NO":"999","REV_AT_EPOCH":"27609","BSTAR":"0.01484000000000","MEAN_MOTION_DOT":"0.00750296","MEAN_MOTION_DDOT":"0.0000000000000","SEMIMAJOR_AXIS":"6811.766","PERIOD":"93.250","APOAPSIS":"453.916","PERIAPSIS":"413.346","OBJECT_TYPE":"DEBRIS","RCS_SIZE":"SMALL","COUNTRY_CODE":"CIS","LAUNCH_DATE":"1993-06-16","SITE":"PKMTR","DECAY_DATE":"2014-10-04","FILE":"1751938","GP_ID":"97080212","TLE_LINE0":"0 COSMOS 2251 DEB","TLE_LINE1":"1 35770U 93036ARQ 14267.28657684  .00750296  00000-0  14840-1 0  9996","TLE_LINE2":"2 35770 074.1785 128.0298 0029780 181.0225 183.2051 15.44235555276094"},{"CCSDS_OMM_VERS":"3.0","COMMENT":"GENERATED VIA SPACE-TRACK.ORG API","CREATION_DATE":"2026-03-28T11:26:42","ORIGINATOR":"18 SPCS","OBJECT_NAME":"COSMOS 2251 DEB","OBJECT_ID":"1993-036ARR","CENTER_NAME":"EARTH","REF_FRAME":"TEME","TIME_SYSTEM":"UTC","MEAN_ELEMENT_THEORY":"SGP4","EPOCH":"2026-03-28T03:51:05.886720","MEAN_MOTION":"14.15597557","ECCENTRICITY":"0.02084029","INCLINATION":"74.1558","RA_OF_ASC_NODE":"124.6659","ARG_OF_PERICENTER":"32.2280","MEAN_ANOMALY":"329.1400","EPHEMERIS_TYPE":"0","CLASSIFICATION_TYPE":"U","NORAD_CAT_ID":"35771","ELEMENT_SET_NO":"999","REV_AT_EPOCH":"84351","BSTAR":"0.00278062600000","MEAN_MOTION_DOT":"0.00006701","MEAN_MOTION_DDOT":"0.0000000000000","SEMIMAJOR_AXIS":"7218.417","PERIOD":"101.724","APOAPSIS":"990.716","PERIAPSIS":"689.848","OBJECT_TYPE":"DEBRIS","RCS_SIZE":"SMALL","COUNTRY_CODE":"CIS","LAUNCH_DATE":"1993-06-16","SITE":"PKMTR","DECAY_DATE":null,"FILE":"5103506","GP_ID":"317398625","TLE_LINE0":"0 COSMOS 2251 DEB","TLE_LINE1":"1 35771U 93036ARR 26087.16048480  .00006701  00000-0  27806-2 0  9997","TLE_LINE2":"2 35771  74.1558 124.6659 0208403  32.2280 329.1400 14.15597557843511"},{"CCSDS_OMM_VERS":"3.0","COMMENT":"GENERATED VIA SPACE-TRACK.ORG API","CREATION_DATE":"2023-04-24T22:56:12","ORIGINATOR":"18 SPCS","OBJECT_NAME":"COSMOS 2251 DEB","OBJECT_ID":"1993-036ARS","CENTER_NAME":"EARTH","REF_FRAME":"TEME","TIME_SYSTEM":"UTC","MEAN_ELEMENT_THEORY":"SGP4","EPOCH":"2023-04-24T13:49:22.550880","MEAN_MOTION":"14.57604617","ECCENTRICITY":"0.00843900","INCLINATION":"73.9734","RA_OF_ASC_NODE":"80.8703","ARG_OF_PERICENTER":"124.7587","MEAN_ANOMALY":"236.1560","EPHEMERIS_TYPE":"0","CLASSIFICATION_TYPE":"U","NORAD_CAT_ID":"35772","ELEMENT_SET_NO":"999","REV_AT_EPOCH":"74161","BSTAR":"0.01203800000000","MEAN_MOTION_DOT":"0.00058034","MEAN_MOTION_DDOT":"0.0000000000000","SEMIMAJOR_AXIS":"7079.056","PERIOD":"98.792","APOAPSIS":"760.661","PERIAPSIS":"641.181","OBJECT_TYPE":"DEBRIS","RCS_SIZE":"SMALL","COUNTRY_CODE":"CIS","LAUNCH_DATE":"1993-06-16","SITE":"PKMTR","DECAY_DATE":"2023-04-24","FILE":"3893506","GP_ID":"230706418","TLE_LINE0":"0 COSMOS 2251 DEB","TLE_LINE1":"1 35772U 93036ARS 23114.57595545  .00058034  00000-0  12038-1 0  9996","TLE_LINE2":"2 35772  73.9734  80.8703 0084390 124.7587 236.1560 14.57604617741616"},{"CCSDS_OMM_VERS":"3.0","COMMENT":"GENERATED VIA SPACE-TRACK.ORG API","CREATION_DATE":"2026-03-28T08:46:24","ORIGINATOR":"18 SPCS","OBJECT_NAME":"COSMOS 2251 DEB","OBJECT_ID":"1993-036ART","CENTER_NAME":"EARTH","REF_FRAME":"TEME","TIME_SYSTEM":"UTC","MEAN_ELEMENT_THEORY":"SGP4","EPOCH":"2026-03-27T21:06:36.938016","MEAN_MOTION":"14.62769209","ECCENTRICITY":"0.00485520","INCLINATION":"74.0071","RA_OF_ASC_NODE":"139.0560","ARG_OF_PERICENTER":"271.4261","MEAN_ANOMALY":"88.1344","EPHEMERIS_TYPE":"0","CLASSIFICATION_TYPE":"U","NORAD_CAT_ID":"35773","ELEMENT_SET_NO":"999","REV_AT_EPOCH":"88376","BSTAR":"0.00040833000000","MEAN_MOTION_DOT":"0.00002086","MEAN_MOTION_DDOT":"0.0000000000000","SEMIMAJOR_AXIS":"7062.384","PERIOD":"98.443","APOAPSIS":"718.538","PERIAPSIS":"649.959","OBJECT_TYPE":"DEBRIS","RCS_SIZE":"SMALL","COUNTRY_CODE":"CIS","LAUNCH_DATE":"1993-06-16","SITE":"PKMTR","DECAY_DATE":null,"FILE":"5102724","GP_ID":"317367963","TLE_LINE0":"0 COSMOS 2251 DEB","TLE_LINE1":"1 35773U 93036ART 26086.87959419  .00002086  00000-0  40833-3 0  9997","TLE_LINE2":"2 35773  74.0071 139.0560 0048552 271.4261  88.1344 14.62769209883763"}]